NOAA 8                  
1 13923U 83022A   24298.85907533  .00000514  00000+0  21914-3 0  9997
2 13923  98.7365 299.1086 0014224 210.6885 149.3466 14.29413209165297
NOAA 8 DEB              
1 38840U 83022M   24293.33487326  .00056551  00000+0  10706-1 0  9990
2 38840  98.3937 316.1101 0006560 264.3393 106.2656 14.64010156687177
